{"type": "FeatureCollection", "features": [ {"type": "Feature", "properties": {"norad_id": 52912, "name": "GAOFEN-12 03", "group": "resource", "lat": -70.05397281113888, "lon": 43.52133649707388, "alt_km": 638.9479563075784, "timestamp": "2025-12-24T18:55:55.715016+00:00", "meta": {"OBJECT_NAME": "GAOFEN-12 03", "OBJECT_ID": "2022-069A", "EPOCH": "2025-12-24T06:26:15.092736", "MEAN_MOTION": 14.79636971, "ECCENTRICITY": 0.00018635, "INCLINATION": 97.8479, "RA_OF_ASC_NODE": 245.3507, "ARG_OF_PERICENTER": 49.6588, "MEAN_ANOMALY": 310.4787, "EPHEMERIS_TYPE": 0, "CLASSIFICATION_TYPE": "U", "NORAD_CAT_ID": 52912, "ELEMENT_SET_NO": 999, "REV_AT_EPOCH": 18874, "BSTAR": 0.00022806165, "MEAN_MOTION_DOT": 1.66e-05, "MEAN_MOTION_DDOT": 0}, "tle": {"line1": "1 52912U 22069A   25358.26823024  .00001660  00000+0  22806-3 0  9991", "line2": "2 52912  97.8479 245.3507 0001863  49.6588 310.4787 14.79636971188740"}}, "geometry": {"type": "Point", "coordinates": [43.52133649707388, -70.05397281113888]}}, {"type": "Feature", "properties": {"norad_id": 54754, "name": "SWOT", "group": "resource", "lat": 29.663065202621326, "lon": -82.0830575402016, "alt_km": 891.3323971719201, "timestamp": "2025-12-24T18:55:55.715026+00:00", "meta": {"OBJECT_NAME": "SWOT", "OBJECT_ID": "2022-173A", "EPOCH": "2025-12-24T05:04:04.743264", "MEAN_MOTION": 14.0016854, "ECCENTRICITY": 3.97e-05, "INCLINATION": 77.6109, "RA_OF_ASC_NODE": 271.505, "ARG_OF_PERICENTER": 82.5384, "MEAN_ANOMALY": 277.5813, "EPHEMERIS_TYPE": 0, "CLASSIFICATION_TYPE": "U", "NORAD_CAT_ID": 54754, "ELEMENT_SET_NO": 999, "REV_AT_EPOCH": 15466, "BSTAR": 5.9967938e-05, "MEAN_MOTION_DOT": 8.6e-07, "MEAN_MOTION_DDOT": 0}, "tle": {"line1": "1 54754U 22173A   25358.21116601  .00000086  00000+0  59968-4 0  9995", "line2": "2 54754  77.6109 271.5050 0000397  82.5384 277.5813 14.00168540154660"}}, "geometry": {"type": "Point", "coordinates": [-82.0830575402016, 29.663065202621326]}}, {"type": "Feature", "properties": {"norad_id": 57654, "name": "GAOFEN-12 04", "group": "resource", "lat": 64.10016110127712, "lon": -102.28084538943789, "alt_km": 623.0910777128847, "timestamp": "2025-12-24T18:55:55.715036+00:00", "meta": {"OBJECT_NAME": "GAOFEN-12 04", "OBJECT_ID": "2023-123A", "EPOCH": "2025-12-24T07:16:40.865664", "MEAN_MOTION": 14.79732136, "ECCENTRICITY": 0.00012062, "INCLINATION": 97.9128, "RA_OF_ASC_NODE": 273.8854, "ARG_OF_PERICENTER": 79.0319, "MEAN_ANOMALY": 281.1028, "EPHEMERIS_TYPE": 0, "CLASSIFICATION_TYPE": "U", "NORAD_CAT_ID": 57654, "ELEMENT_SET_NO": 999, "REV_AT_EPOCH": 12676, "BSTAR": 0.00018893385, "MEAN_MOTION_DOT": 1.369e-05, "MEAN_MOTION_DDOT": 0}, "tle": {"line1": "1 57654U 23123A   25358.30325076  .00001369  00000+0  18893-3 0  9997", "line2": "2 57654  97.9128 273.8854 0001206  79.0319 281.1028 14.79732136126767"}}, "geometry": {"type": "Point", "coordinates": [-102.28084538943789, 64.10016110127712]}}, {"type": "Feature", "properties": {"norad_id": 59065, "name": "PARS 1", "group": "resource", "lat": -59.62476557297703, "lon": 137.0517382875549, "alt_km": 456.8090083765892, "timestamp": "2025-12-24T18:55:55.715047+00:00", "meta": {"OBJECT_NAME": "PARS 1", "OBJECT_ID": "2024-039Q", "EPOCH": "2025-12-24T06:59:05.284032", "MEAN_MOTION": 15.41230399, "ECCENTRICITY": 0.00116667, "INCLINATION": 97.4653, "RA_OF_ASC_NODE": 329.471, "ARG_OF_PERICENTER": 36.9364, "MEAN_ANOMALY": 323.2683, "EPHEMERIS_TYPE": 0, "CLASSIFICATION_TYPE": "U", "NORAD_CAT_ID": 59065, "ELEMENT_SET_NO": 999, "REV_AT_EPOCH": 10166, "BSTAR": 0.00031437969, "MEAN_MOTION_DOT": 0.00013011, "MEAN_MOTION_DDOT": 0}, "tle": {"line1": "1 59065U 24039Q   25358.29103338  .00013011  00000+0  31438-3 0  9992", "line2": "2 59065  97.4653 329.4710 0011666  36.9364 323.2683 15.41230399101666"}}, "geometry": {"type": "Point", "coordinates": [137.0517382875549, -59.62476557297703]}}, {"type": "Feature", "properties": {"norad_id": 59371, "name": "RESURS-P 4", "group": "resource", "lat": -6.446528910297465, "lon": -54.301831949253355, "alt_km": 473.09915296126746, "timestamp": "2025-12-24T18:55:55.715057+00:00", "meta": {"OBJECT_NAME": "RESURS-P 4", "OBJECT_ID": "2024-061A", "EPOCH": "2025-12-24T07:59:19.034880", "MEAN_MOTION": 15.32187193, "ECCENTRICITY": 8.191e-05, "INCLINATION": 97.2564, "RA_OF_ASC_NODE": 304.4264, "ARG_OF_PERICENTER": 76.2659, "MEAN_ANOMALY": 283.8674, "EPHEMERIS_TYPE": 0, "CLASSIFICATION_TYPE": "U", "NORAD_CAT_ID": 59371, "ELEMENT_SET_NO": 999, "REV_AT_EPOCH": 9698, "BSTAR": 0.0001410279, "MEAN_MOTION_DOT": 4.306e-05, "MEAN_MOTION_DDOT": 0}, "tle": {"line1": "1 59371U 24061A   25358.33285920  .00004306  00000+0  14103-3 0  9997", "line2": "2 59371  97.2564 304.4264 0000819  76.2659 283.8674 15.32187193 96986"}}, "geometry": {"type": "Point", "coordinates": [-54.301831949253355, -6.446528910297465]}}, {"type": "Feature", "properties": {"norad_id": 59625, "name": "LEGION 1", "group": "resource", "lat": -80.05067894599894, "lon": -155.53059392543182, "alt_km": 521.0114289077646, "timestamp": "2025-12-24T18:55:55.715067+00:00", "meta": {"OBJECT_NAME": "LEGION 1", "OBJECT_ID": "2024-081A", "EPOCH": "2025-12-24T05:06:20.370528", "MEAN_MOTION": 15.16589323, "ECCENTRICITY": 0.00036083, "INCLINATION": 97.5198, "RA_OF_ASC_NODE": 72.7533, "ARG_OF_PERICENTER": 263.7988, "MEAN_ANOMALY": 96.2834, "EPHEMERIS_TYPE": 0, "CLASSIFICATION_TYPE": "U", "NORAD_CAT_ID": 59625, "ELEMENT_SET_NO": 999, "REV_AT_EPOCH": 9101, "BSTAR": 0.0002874896, "MEAN_MOTION_DOT": 5.548e-05, "MEAN_MOTION_DDOT": 0}, "tle": {"line1": "1 59625U 24081A   25358.21273577  .00005548  00000+0  28749-3 0  9993", "line2": "2 59625  97.5198  72.7533 0003608 263.7988  96.2834 15.16589323 91011"}}, "geometry": {"type": "Point", "coordinates": [-155.53059392543182, -80.05067894599894]}}, {"type": "Feature", "properties": {"norad_id": 59626, "name": "LEGION 2", "group": "resource", "lat": 80.22327988570231, "lon": 23.361009174876525, "alt_km": 512.3900686687557, "timestamp": "2025-12-24T18:55:55.715078+00:00", "meta": {"OBJECT_NAME": "LEGION 2", "OBJECT_ID": "2024-081B", "EPOCH": "2025-12-24T05:53:45.684096", "MEAN_MOTION": 15.1660189, "ECCENTRICITY": 0.00057447, "INCLINATION": 97.5199, "RA_OF_ASC_NODE": 72.8739, "ARG_OF_PERICENTER": 243.7683, "MEAN_ANOMALY": 116.296, "EPHEMERIS_TYPE": 0, "CLASSIFICATION_TYPE": "U", "NORAD_CAT_ID": 59626, "ELEMENT_SET_NO": 999, "REV_AT_EPOCH": 9102, "BSTAR": 0.00028200914, "MEAN_MOTION_DOT": 5.444e-05, "MEAN_MOTION_DDOT": 0}, "tle": {"line1": "1 59626U 24081B   25358.24566764  .00005444  00000+0  28201-3 0  9998", "line2": "2 59626  97.5199  72.8739 0005744 243.7683 116.2960 15.16601890 91023"}}, "geometry": {"type": "Point", "coordinates": [23.361009174876525, 80.22327988570231]}}, {"type": "Feature", "properties": {"norad_id": 60182, "name": "ALOS-4 (DAICHI-4)", "group": "resource", "lat": -63.62464666126935, "lon": 109.77343346383667, "alt_km": 639.0731531549054, "timestamp": "2025-12-24T18:55:55.715087+00:00", "meta": {"OBJECT_NAME": "ALOS-4 (DAICHI-4)", "OBJECT_ID": "2024-123A", "EPOCH": "2025-12-24T09:29:07.451232", "MEAN_MOTION": 14.79477942, "ECCENTRICITY": 0.0001332, "INCLINATION": 97.9223, "RA_OF_ASC_NODE": 93.0761, "ARG_OF_PERICENTER": 100.4362, "MEAN_ANOMALY": 259.7, "EPHEMERIS_TYPE": 0, "CLASSIFICATION_TYPE": "U", "NORAD_CAT_ID": 60182, "ELEMENT_SET_NO": 999, "REV_AT_EPOCH": 8003, "BSTAR": 0.00024039, "MEAN_MOTION_DOT": 1.744e-05, "MEAN_MOTION_DDOT": 0}, "tle": {"line1": "1 60182U 24123A   25358.39522513  .00001744  00000+0  24039-3 0  9998", "line2": "2 60182  97.9223  93.0761 0001332 100.4362 259.7000 14.79477942 80030"}}, "geometry": {"type": "Point", "coordinates": [109.77343346383667, -63.62464666126935]}}, {"type": "Feature", "properties": {"norad_id": 60452, "name": "LEGION 3", "group": "resource", "lat": -21.154043906031003, "lon": 88.31466465182783, "alt_km": 513.9832156744096, "timestamp": "2025-12-24T18:55:55.715098+00:00", "meta": {"OBJECT_NAME": "LEGION 3", "OBJECT_ID": "2024-146A", "EPOCH": "2025-12-24T03:46:17.167296", "MEAN_MOTION": 15.15872673, "ECCENTRICITY": 0.00157397, "INCLINATION": 45.0002, "RA_OF_ASC_NODE": 248.9219, "ARG_OF_PERICENTER": 259.5896, "MEAN_ANOMALY": 100.3209, "EPHEMERIS_TYPE": 0, "CLASSIFICATION_TYPE": "U", "NORAD_CAT_ID": 60452, "ELEMENT_SET_NO": 999, "REV_AT_EPOCH": 7546, "BSTAR": 0.00028734713, "MEAN_MOTION_DOT": 5.346e-05, "MEAN_MOTION_DDOT": 0}, "tle": {"line1": "1 60452U 24146A   25358.15714314  .00005346  00000+0  28735-3 0  9998", "line2": "2 60452  45.0002 248.9219 0015739 259.5896 100.3209 15.15872673 75466"}}, "geometry": {"type": "Point", "coordinates": [88.31466465182783, -21.154043906031003]}}, {"type": "Feature", "properties": {"norad_id": 60453, "name": "LEGION 4", "group": "resource", "lat": -20.871326628289136, "lon": 179.71616907399783, "alt_km": 525.9081553137676, "timestamp": "2025-12-24T18:55:55.715109+00:00", "meta": {"OBJECT_NAME": "LEGION 4", "OBJECT_ID": "2024-146B", "EPOCH": "2025-12-24T05:21:25.426080", "MEAN_MOTION": 15.15942975, "ECCENTRICITY": 0.00082397, "INCLINATION": 45.0395, "RA_OF_ASC_NODE": 340.3513, "ARG_OF_PERICENTER": 14.7591, "MEAN_ANOMALY": 345.3528, "EPHEMERIS_TYPE": 0, "CLASSIFICATION_TYPE": "U", "NORAD_CAT_ID": 60453, "ELEMENT_SET_NO": 999, "REV_AT_EPOCH": 7432, "BSTAR": 0.00034629727, "MEAN_MOTION_DOT": 6.499e-05, "MEAN_MOTION_DDOT": 0}, "tle": {"line1": "1 60453U 24146B   25358.22321095  .00006499  00000+0  34630-3 0  9998", "line2": "2 60453  45.0395 340.3513 0008239  14.7591 345.3528 15.15942975 74328"}}, "geometry": {"type": "Point", "coordinates": [179.71616907399783, -20.871326628289136]}}]}